NORAD_CAT_ID,OBJECT_NAME,OBJECT_TYPE,EPOCH,MEAN_MOTION,ECCENTRICITY,INCLINATION,RA_OF_ASC_NODE,ARG_OF_PERICENTER,MEAN_ANOMALY,BSTAR,MEAN_MOTION_DOT,MEAN_MOTION_DDOT,TLE_LINE0,TLE_LINE1,TLE_LINE2,SEMIMAJOR_AXIS,PERIOD,APOGEE,PERIGEE,DECAYED
52288.0,STARLINK-3776,PAYLOAD,2022-11-03 18:25:11,15.08852918,0.0002329,53.2188,184.5421,51.4919,308.6281,9.3557e-05,1.201e-05,0.0,0 STARLINK-3776,1 52288U 22041AD  22307.76749889  .00001201  00000-0  93557-4 0  9993,2 52288  53.2188 184.5421 0002329  51.4919 308.6281 15.08852918 31250,6917.840999999999,95.437,541.317,538.095,0.0
52288.0,STARLINK-3776,PAYLOAD,2022-11-04 02:22:07,15.08850496,0.0001928,53.2178,183.0529,47.593,312.5225,0.00013284,1.827e-05,0.0,0 STARLINK-3776,1 52288U 22041AD  22308.09869593  .00001827  00000-0  13284-3 0  9997,2 52288  53.2178 183.0529 0001928  47.5930 312.5225 15.08850496 30086,6917.848000000001,95.437,541.047,538.38,0.0
52288.0,STARLINK-3776,PAYLOAD,2022-11-04 18:15:59,15.08832848,0.0001833,53.2179,180.0814,51.7721,308.3436,6.9053e-05,8.11e-06,0.0,0 STARLINK-3776,1 52288U 22041AD  22308.76110907  .00000811  00000-0  69053-4 0  9997,2 52288  53.2179 180.0814 0001833  51.7721 308.3436 15.08832848 31406,6917.901999999999,95.438,541.035,538.499,0.0
52288.0,STARLINK-3776,PAYLOAD,2022-11-05 08:34:28,15.08836308,0.0001644,53.2169,177.4016,42.6137,317.4982,-1.412e-05,-5.13e-06,0.0,0 STARLINK-3776,1 52288U 22041AD  22309.35727118 -.00000513  00000-0 -14120-4 0  9997,2 52288  53.2169 177.4016 0001644  42.6137 317.4982 15.08836308 30275,6917.892,95.438,540.894,538.619,0.0
52288.0,STARLINK-3776,PAYLOAD,2022-11-05 18:06:47,15.08838499,0.0001888,53.2173,175.6201,46.562,313.5529,-0.00020189,-3.5e-05,0.0,0 STARLINK-3776,1 52288U 22041AD  22309.75471779 -.00003500  00000-0 -20189-3 0  9990,2 52288  53.2173 175.6201 0001888  46.5620 313.5529 15.08838499 30330,6917.885,95.438,541.056,538.444,0.0
52288.0,STARLINK-3776,PAYLOAD,2022-11-06 02:03:42,15.08842729,0.0002009,53.217,174.1333,46.0352,314.0805,-0.00014604,-2.612e-05,0.0,0 STARLINK-3776,1 52288U 22041AD  22310.08591368 -.00002612  00000-0 -14604-3 0  9993,2 52288  53.2170 174.1333 0002009  46.0352 314.0805 15.08842729 31605,6917.871999999999,95.437,541.127,538.347,0.0
52288.0,STARLINK-3776,PAYLOAD,2022-11-06 08:25:15,15.08843956,0.0001788,53.2169,172.94299999999996,51.2254,308.8898,-9.8107e-05,-1.849e-05,0.0,0 STARLINK-3776,1 52288U 22041AD  22310.35087040 -.00001849  00000-0 -98107-4 0  9992,2 52288  53.2169 172.9430 0001788  51.2254 308.8898 15.08843956 30424,6917.868,95.437,540.97,538.496,0.0
52288.0,STARLINK-3776,PAYLOAD,2022-11-06 21:08:21,15.08822361,0.0001805,53.2171,170.5637,52.4326,307.683,-1.8482e-06,-3.17e-06,0.0,0 STARLINK-3776,1 52288U 22041AD  22310.88080378 -.00000317  00000-0 -18482-5 0  9995,2 52288  53.2171 170.5637 0001805  52.4326 307.6830 15.08822361 31727,6917.934,95.439,541.048,538.5509999999998,0.0
52288.0,STARLINK-3776,PAYLOAD,2022-11-07 20:59:08,15.08828222,0.0001936,53.2169,166.1039,50.912,309.2044,3.672800000000001e-05,2.96e-06,0.0,0 STARLINK-3776,1 52288U 22041AD  22311.87440607  .00000296  00000-0  36728-4 0  9996,2 52288  53.2169 166.1039 0001936  50.9120 309.2044 15.08828222 31874,6917.916,95.438,541.121,538.442,0.0
52288.0,STARLINK-3776,PAYLOAD,2022-11-08 01:45:18,15.08829687,0.0001973,53.2168,165.2121,50.3535,309.7631,5.152e-05,5.32e-06,0.0,0 STARLINK-3776,1 52288U 22041AD  22312.07312596  .00000532  00000-0  51520-4 0  9994,2 52288  53.2168 165.2121 0001973  50.3535 309.7631 15.08829687 30681,6917.9119999999975,95.438,541.1419999999998,538.4119999999998,0.0
52288.0,STARLINK-3776,PAYLOAD,2022-11-09 15:54:32,15.08842876,0.0002091,53.2156,158.0761,40.056,320.0586,-3.7728e-05,-8.89e-06,0.0,0 STARLINK-3776,1 52288U 22041AD  22313.66287863 -.00000889  00000-0 -37728-4 0  9999,2 52288  53.2156 158.0761 0002091  40.0560 320.0586 15.08842876 32147,6917.871999999999,95.437,541.183,538.29,0.0
52288.0,STARLINK-3776,PAYLOAD,2022-11-09 20:40:42,15.08831703,0.0001795,53.2174,157.18200000000004,43.8534,316.26,-1.0467e-05,-4.55e-06,0.0,0 STARLINK-3776,1 52288U 22041AD  22313.86160486 -.00000455  00000-0 -10467-4 0  9992,2 52288  53.2174 157.1820 0001795  43.8534 316.2600 15.08831703 30953,6917.906,95.438,541.013,538.529,0.0
52288.0,STARLINK-3776,PAYLOAD,2022-11-09 23:51:29,15.08828007,0.0001798,53.2168,156.5885,44.133,315.9805,-5.1443e-05,-1.106e-05,0.0,0 STARLINK-3776,1 52288U 22041AD  22313.99408810 -.00001106  00000-0 -51443-4 0  9995,2 52288  53.2168 156.5885 0001798  44.1330 315.9805 15.08828007 32195,6917.917,95.438,541.026,538.538,0.0
52288.0,STARLINK-3776,PAYLOAD,2022-11-10 12:34:34,15.08835029,0.0001973,53.2168,154.2094,43.7753,316.3395,-0.00010047,-1.887e-05,0.0,0 STARLINK-3776,1 52288U 22041AD  22314.52400757 -.00001887  00000-0 -10047-3 0  9997,2 52288  53.2168 154.2094 0001973  43.7753 316.3395 15.08835029 31056,6917.896,95.438,541.125,538.396,0.0
52288.0,STARLINK-3776,PAYLOAD,2022-11-10 18:56:06,15.08831169,0.0001884,53.2171,153.0204,46.7998,313.3151,4.5303e-06,-2.16e-06,0.0,0 STARLINK-3776,1 52288U 22041AD  22314.78896399 -.00000216  00000-0  45303-5 0  9995,2 52288  53.2171 153.0204 0001884  46.7998 313.3151 15.08831169 32313,6917.906999999997,95.438,541.076,538.469,0.0
52288.0,STARLINK-3776,PAYLOAD,2022-11-10 20:31:29,15.08820769,0.0001861,53.217,152.7229,48.2752,311.8399,0.00012217,1.656e-05,0.0,0 STARLINK-3776,1 52288U 22041AD  22314.85520445  .00001656  00000-0  12217-3 0  9993,2 52288  53.2170 152.7229 0001861  48.2752 311.8399 15.08820769 31102,6917.939,95.439,541.092,538.5169999999998,0.0
52288.0,STARLINK-3776,PAYLOAD,2022-11-11 06:03:48,15.08835857,0.0001901,53.2172,150.9387,46.6511,313.464,-1.524e-05,-5.31e-06,0.0,0 STARLINK-3776,1 52288U 22041AD  22315.25264384 -.00000531  00000-0 -15240-4 0  9998,2 52288  53.2172 150.9387 0001901  46.6511 313.4640 15.08835857 31166,6917.893,95.438,541.073,538.443,0.0
52288.0,STARLINK-3776,PAYLOAD,2022-11-11 20:22:16,15.08834925,0.0001819,53.2172,148.2625,44.2052,315.9086,0.00010736,1.421e-05,0.0,0 STARLINK-3776,1 52288U 22041AD  22315.84880061  .00001421  00000-0  10736-3 0  9990,2 52288  53.2172 148.2625 0001819  44.2052 315.9086 15.08834925 32474,6917.896,95.438,541.019,538.503,0.0
52288.0,STARLINK-3776,PAYLOAD,2022-11-12 05:54:34,15.08840246,0.0001848,53.2169,146.47799999999995,44.062,316.0519,0.00012656,1.727e-05,0.0,0 STARLINK-3776,1 52288U 22041AD  22316.24623696  .00001727  00000-0  12656-3 0  9996,2 52288  53.2169 146.4780 0001848  44.0620 316.0519 15.08840246 31311,6917.88,95.438,541.023,538.466,0.0
52288.0,STARLINK-3776,PAYLOAD,2022-11-12 18:37:40,15.08835994,0.0001902,53.2171,144.0991,45.5017,314.613,1.3297e-05,-7.7e-07,0.0,0 STARLINK-3776,1 52288U 22041AD  22316.77616447 -.00000077  00000-0  13297-4 0  9991,2 52288  53.2171 144.0991 0001902  45.5017 314.6130 15.08835994 31394,6917.893,95.438,541.073,538.442,0.0
52288.0,STARLINK-3776,PAYLOAD,2022-11-13 12:06:55,15.08838884,0.0001964,53.2171,140.8282,47.5792,312.5366,-4.3032e-07,-2.95e-06,0.0,0 STARLINK-3776,1 52288U 22041AD  22317.50480373 -.00000295  00000-0 -43032-6 0  9995,2 52288  53.2171 140.8282 0001964  47.5792 312.5366 15.08838884 32728,6917.884,95.438,541.107,538.39,0.0
52288.0,STARLINK-3776,PAYLOAD,2022-11-13 16:53:04,15.08842873,0.0001964,53.217,139.9363,47.4749,312.6409,-8.9313e-06,-4.3e-06,0.0,0 STARLINK-3776,1 52288U 22041AD  22317.70352131 -.00000430  00000-0 -89313-5 0  9999,2 52288  53.2170 139.9363 0001964  47.4749 312.6409 15.08842873 31537,6917.871999999999,95.437,541.095,538.378,0.0
52288.0,STARLINK-3776,PAYLOAD,2022-11-14 05:36:10,15.08829575,0.0002021,53.2168,137.5573,48.7617,311.3549,-0.0001094,-2.028e-05,0.0,0 STARLINK-3776,1 52288U 22041AD  22318.23345330 -.00002028  00000-0 -10940-3 0  9994,2 52288  53.2168 137.5573 0002021  48.7617 311.3549 15.08829575 32833,6917.9119999999975,95.438,541.175,538.379,0.0
52288.0,STARLINK-3776,PAYLOAD,2022-11-14 11:57:42,15.08833305,0.0001936,53.2176,136.3673,47.8139,312.3017,-0.00010686,-1.988e-05,0.0,0 STARLINK-3776,1 52288U 22041AD  22318.49841099 -.00001988  00000-0 -10686-3 0  9996,2 52288  53.2176 136.3673 0001936  47.8139 312.3017 15.08833305 31659,6917.901,95.438,541.105,538.427,0.0
52288.0,STARLINK-3776,PAYLOAD,2022-11-14 18:19:15,15.08831101,0.0001984,53.2172,135.1785,49.0533,311.063,-2.9529e-05,-7.58e-06,0.0,0 STARLINK-3776,1 52288U 22041AD  22318.76337139 -.00000758  00000-0 -29529-4 0  9992,2 52288  53.2172 135.1785 0001984  49.0533 311.0630 15.08831101 31694,6917.908,95.438,541.145,538.4,0.0
52288.0,STARLINK-3776,PAYLOAD,2022-11-15 05:26:57,15.08832542,0.0001995,53.2172,133.097,49.1518,310.9647,-1.2389e-05,-4.85e-06,0.0,0 STARLINK-3776,1 52288U 22041AD  22319.22705189 -.00000485  00000-0 -12389-4 0  9991,2 52288  53.2172 133.0970 0001995  49.1518 310.9647 15.08832542 32982,6917.903,95.438,541.148,538.388,0.0
52288.0,STARLINK-3776,PAYLOAD,2022-11-15 18:10:02,15.08838332,0.0002074,53.2172,130.7181,49.3509,310.7663,-1.2898e-05,-4.94e-06,0.0,0 STARLINK-3776,1 52288U 22041AD  22319.75697015 -.00000494  00000-0 -12898-4 0  9992,2 52288  53.2172 130.7181 0002074  49.3509 310.7663 15.08838332 31844,6917.885,95.438,541.185,538.316,0.0
52288.0,STARLINK-3776,PAYLOAD,2022-11-16 11:39:16,15.08836859,0.0002047,53.2171,127.4471,49.2639,310.8531,8.9616e-05,1.138e-05,0.0,0 STARLINK-3776,1 52288U 22041AD  22320.48560847  .00001138  00000-0  89616-4 0  9992,2 52288  53.2171 127.4471 0002047  49.2639 310.8531 15.08836859 33176,6917.89,95.438,541.1709999999998,538.339,0.0
52288.0,STARLINK-3776,PAYLOAD,2022-11-16 18:00:48,15.08839703,0.0002047,53.2171,126.2575,50.3816,309.7357,0.00010275,1.347e-05,0.0,0 STARLINK-3776,1 52288U 22041AD  22320.75056633  .00001347  00000-0  10275-3 0  9991,2 52288  53.2171 126.2575 0002047  50.3816 309.7357 15.08839703 31990,6917.880999999999,95.438,541.1619999999998,538.33,0.0
